{"type": "FeatureCollection", "features": [ {"type": "Feature", "properties": {"norad_id": 30941, "name": "FENGYUN 1C DEB", "group": "fengyun-1c-debris", "lat": -64.73580643363974, "lon": 8.8305047797084, "alt_km": 782.9304068509291, "timestamp": "2025-12-16T15:45:51.325900+00:00", "meta": {"OBJECT_NAME": "FENGYUN 1C DEB", "OBJECT_ID": "1999-025BAF", "EPOCH": "2025-12-14T13:57:07.370784", "MEAN_MOTION": 14.31060465, "ECCENTRICITY": 0.00341089, "INCLINATION": 98.5476, "RA_OF_ASC_NODE": 205.3725, "ARG_OF_PERICENTER": 311.912, "MEAN_ANOMALY": 47.9156, "EPHEMERIS_TYPE": 0, "CLASSIFICATION_TYPE": "U", "NORAD_CAT_ID": 30941, "ELEMENT_SET_NO": 999, "REV_AT_EPOCH": 96652, "BSTAR": 0.0016701362, "MEAN_MOTION_DOT": 4.386e-05, "MEAN_MOTION_DDOT": 0}, "tle": {"line1": "1 30941U 99025BAF 25348.58133531  .00004386  00000+0  16701-2 0  9990", "line2": "2 30941  98.5476 205.3725 0034108 311.9120  47.9156 14.31060465966525"}}, "geometry": {"type": "Point", "coordinates": [8.8305047797084, -64.73580643363974]}}, {"type": "Feature", "properties": {"norad_id": 30942, "name": "FENGYUN 1C DEB", "group": "fengyun-1c-debris", "lat": 23.579949810269934, "lon": -15.031288671885568, "alt_km": 808.8920626042582, "timestamp": "2025-12-16T15:45:51.325912+00:00", "meta": {"OBJECT_NAME": "FENGYUN 1C DEB", "OBJECT_ID": "1999-025BAG", "EPOCH": "2025-12-15T11:30:19.638144", "MEAN_MOTION": 14.14840632, "ECCENTRICITY": 0.0138039, "INCLINATION": 98.6797, "RA_OF_ASC_NODE": 347.6463, "ARG_OF_PERICENTER": 98.5199, "MEAN_ANOMALY": 53.0554, "EPHEMERIS_TYPE": 0, "CLASSIFICATION_TYPE": "U", "NORAD_CAT_ID": 30942, "ELEMENT_SET_NO": 999, "REV_AT_EPOCH": 96683, "BSTAR": 0.00022527902, "MEAN_MOTION_DOT": 4.35e-06, "MEAN_MOTION_DDOT": 0}, "tle": {"line1": "1 30942U 99025BAG 25349.47939396  .00000435  00000+0  22528-3 0  9999", "line2": "2 30942  98.6797 347.6463 0138039  98.5199  53.0554 14.14840632966831"}}, "geometry": {"type": "Point", "coordinates": [-15.031288671885568, 23.579949810269934]}}, {"type": "Feature", "properties": {"norad_id": 30943, "name": "FENGYUN 1C DEB", "group": "fengyun-1c-debris", "lat": -37.65661534567454, "lon": 177.59214374396578, "alt_km": 919.8638869456145, "timestamp": "2025-12-16T15:45:51.325922+00:00", "meta": {"OBJECT_NAME": "FENGYUN 1C DEB", "OBJECT_ID": "1999-025BAH", "EPOCH": "2025-12-15T06:14:49.012800", "MEAN_MOTION": 14.04490684, "ECCENTRICITY": 0.0050762, "INCLINATION": 98.7971, "RA_OF_ASC_NODE": 3.1023, "ARG_OF_PERICENTER": 58.7985, "MEAN_ANOMALY": 301.8144, "EPHEMERIS_TYPE": 0, "CLASSIFICATION_TYPE": "U", "NORAD_CAT_ID": 30943, "ELEMENT_SET_NO": 999, "REV_AT_EPOCH": 95777, "BSTAR": 0.00046799622, "MEAN_MOTION_DOT": 7.13e-06, "MEAN_MOTION_DDOT": 0}, "tle": {"line1": "1 30943U 99025BAH 25349.26028950  .00000713  00000+0  46800-3 0  9990", "line2": "2 30943  98.7971   3.1023 0050762  58.7985 301.8144 14.04490684957779"}}, "geometry": {"type": "Point", "coordinates": [177.59214374396578, -37.65661534567454]}}, {"type": "Feature", "properties": {"norad_id": 30944, "name": "FENGYUN 1C DEB", "group": "fengyun-1c-debris", "lat": -6.746711129567058, "lon": 47.624495797657225, "alt_km": 730.1795860970988, "timestamp": "2025-12-16T15:45:51.325935+00:00", "meta": {"OBJECT_NAME": "FENGYUN 1C DEB", "OBJECT_ID": "1999-025BAJ", "EPOCH": "2025-12-15T15:40:30.927072", "MEAN_MOTION": 14.52447883, "ECCENTRICITY": 0.0149291, "INCLINATION": 98.8503, "RA_OF_ASC_NODE": 45.5101, "ARG_OF_PERICENTER": 91.9029, "MEAN_ANOMALY": 57.9243, "EPHEMERIS_TYPE": 0, "CLASSIFICATION_TYPE": "U", "NORAD_CAT_ID": 30944, "ELEMENT_SET_NO": 999, "REV_AT_EPOCH": 99118, "BSTAR": 0.00014375429, "MEAN_MOTION_DOT": 6.21e-06, "MEAN_MOTION_DDOT": 0}, "tle": {"line1": "1 30944U 99025BAJ 25349.65313573  .00000621  00000+0  14375-3 0  9992", "line2": "2 30944  98.8503  45.5101 0149291  91.9029  57.9243 14.52447883991181"}}, "geometry": {"type": "Point", "coordinates": [47.624495797657225, -6.746711129567058]}}, {"type": "Feature", "properties": {"norad_id": 30945, "name": "FENGYUN 1C DEB", "group": "fengyun-1c-debris", "lat": 32.488340670114475, "lon": -174.32479537610305, "alt_km": 801.3949680736541, "timestamp": "2025-12-16T15:45:51.325945+00:00", "meta": {"OBJECT_NAME": "FENGYUN 1C DEB", "OBJECT_ID": "1999-025BAK", "EPOCH": "2025-12-14T18:33:31.164768", "MEAN_MOTION": 14.29735744, "ECCENTRICITY": 0.00306092, "INCLINATION": 99.39, "RA_OF_ASC_NODE": 357.5974, "ARG_OF_PERICENTER": 32.6049, "MEAN_ANOMALY": 144.5479, "EPHEMERIS_TYPE": 0, "CLASSIFICATION_TYPE": "U", "NORAD_CAT_ID": 30945, "ELEMENT_SET_NO": 999, "REV_AT_EPOCH": 96466, "BSTAR": 0.0015774128, "MEAN_MOTION_DOT": 4.021e-05, "MEAN_MOTION_DDOT": 0}, "tle": {"line1": "1 30945U 99025BAK 25348.77327737  .00004021  00000+0  15774-2 0  9993", "line2": "2 30945  99.3900 357.5974 0030609  32.6049 144.5479 14.29735744964666"}}, "geometry": {"type": "Point", "coordinates": [-174.32479537610305, 32.488340670114475]}}, {"type": "Feature", "properties": {"norad_id": 30946, "name": "FENGYUN 1C DEB", "group": "fengyun-1c-debris", "lat": 0.6993358486088652, "lon": 106.00486959947568, "alt_km": 798.082719999652, "timestamp": "2025-12-16T15:45:51.325955+00:00", "meta": {"OBJECT_NAME": "FENGYUN 1C DEB", "OBJECT_ID": "1999-025BAL", "EPOCH": "2025-12-15T06:44:01.932288", "MEAN_MOTION": 14.48165133, "ECCENTRICITY": 0.0089454, "INCLINATION": 99.0379, "RA_OF_ASC_NODE": 104.6452, "ARG_OF_PERICENTER": 185.3572, "MEAN_ANOMALY": 204.5364, "EPHEMERIS_TYPE": 0, "CLASSIFICATION_TYPE": "U", "NORAD_CAT_ID": 30946, "ELEMENT_SET_NO": 999, "REV_AT_EPOCH": 98388, "BSTAR": 0.00063522366, "MEAN_MOTION_DOT": 2.436e-05, "MEAN_MOTION_DDOT": 0}, "tle": {"line1": "1 30946U 99025BAL 25349.28057792  .00002436  00000+0  63522-3 0  9995", "line2": "2 30946  99.0379 104.6452 0089454 185.3572 204.5364 14.48165133983880"}}, "geometry": {"type": "Point", "coordinates": [106.00486959947568, 0.6993358486088652]}}, {"type": "Feature", "properties": {"norad_id": 30947, "name": "FENGYUN 1C DEB", "group": "fengyun-1c-debris", "lat": -65.59970051438056, "lon": -99.6200685824397, "alt_km": 734.3136674695188, "timestamp": "2025-12-16T15:45:51.325965+00:00", "meta": {"OBJECT_NAME": "FENGYUN 1C DEB", "OBJECT_ID": "1999-025BAM", "EPOCH": "2025-12-15T03:20:18.351456", "MEAN_MOTION": 14.38045842, "ECCENTRICITY": 0.00956955, "INCLINATION": 98.8084, "RA_OF_ASC_NODE": 238.8364, "ARG_OF_PERICENTER": 240.529, "MEAN_ANOMALY": 118.6323, "EPHEMERIS_TYPE": 0, "CLASSIFICATION_TYPE": "U", "NORAD_CAT_ID": 30947, "ELEMENT_SET_NO": 999, "REV_AT_EPOCH": 98527, "BSTAR": 0.00029429226, "MEAN_MOTION_DOT": 8.9e-06, "MEAN_MOTION_DDOT": 0}, "tle": {"line1": "1 30947U 99025BAM 25349.13910129  .00000890  00000+0  29429-3 0  9992", "line2": "2 30947  98.8084 238.8364 0095695 240.5290 118.6323 14.38045842985276"}}, "geometry": {"type": "Point", "coordinates": [-99.6200685824397, -65.59970051438056]}}, {"type": "Feature", "properties": {"norad_id": 30949, "name": "FENGYUN 1C DEB", "group": "fengyun-1c-debris", "lat": -59.55623442710004, "lon": 149.80590315293486, "alt_km": 807.3573553340784, "timestamp": "2025-12-16T15:45:51.325977+00:00", "meta": {"OBJECT_NAME": "FENGYUN 1C DEB", "OBJECT_ID": "1999-025BAP", "EPOCH": "2025-12-15T06:24:17.623296", "MEAN_MOTION": 14.1405098, "ECCENTRICITY": 0.01163048, "INCLINATION": 98.6979, "RA_OF_ASC_NODE": 343.5505, "ARG_OF_PERICENTER": 302.5735, "MEAN_ANOMALY": 67.3877, "EPHEMERIS_TYPE": 0, "CLASSIFICATION_TYPE": "U", "NORAD_CAT_ID": 30949, "ELEMENT_SET_NO": 999, "REV_AT_EPOCH": 96552, "BSTAR": 0.00027378803, "MEAN_MOTION_DOT": 5.11e-06, "MEAN_MOTION_DDOT": 0}, "tle": {"line1": "1 30949U 99025BAP 25349.26687064  .00000511  00000+0  27379-3 0  9999", "line2": "2 30949  98.6979 343.5505 0116304 302.5735  67.3877 14.14050980965527"}}, "geometry": {"type": "Point", "coordinates": [149.80590315293486, -59.55623442710004]}}, {"type": "Feature", "properties": {"norad_id": 30954, "name": "FENGYUN 1C DEB", "group": "fengyun-1c-debris", "lat": -60.109515125821396, "lon": 106.15371660165188, "alt_km": 898.8330614580855, "timestamp": "2025-12-16T15:45:51.325990+00:00", "meta": {"OBJECT_NAME": "FENGYUN 1C DEB", "OBJECT_ID": "1999-025BAU", "EPOCH": "2025-12-15T18:42:53.976096", "MEAN_MOTION": 14.14947445, "ECCENTRICITY": 0.01288467, "INCLINATION": 98.7133, "RA_OF_ASC_NODE": 89.8234, "ARG_OF_PERICENTER": 178.6931, "MEAN_ANOMALY": 333.7824, "EPHEMERIS_TYPE": 0, "CLASSIFICATION_TYPE": "U", "NORAD_CAT_ID": 30954, "ELEMENT_SET_NO": 999, "REV_AT_EPOCH": 96430, "BSTAR": 0.00073740475, "MEAN_MOTION_DOT": 1.502e-05, "MEAN_MOTION_DDOT": 0}, "tle": {"line1": "1 30954U 99025BAU 25349.77979139  .00001502  00000+0  73740-3 0  9992", "line2": "2 30954  98.7133  89.8234 0128846 178.6931 333.7824 14.14947445964307"}}, "geometry": {"type": "Point", "coordinates": [106.15371660165188, -60.109515125821396]}}, {"type": "Feature", "properties": {"norad_id": 30956, "name": "FENGYUN 1C DEB", "group": "fengyun-1c-debris", "lat": -73.98568519054592, "lon": 57.09204524851335, "alt_km": 828.4428219955016, "timestamp": "2025-12-16T15:45:51.326001+00:00", "meta": {"OBJECT_NAME": "FENGYUN 1C DEB", "OBJECT_ID": "1999-025BAW", "EPOCH": "2025-12-15T13:40:42.851424", "MEAN_MOTION": 14.14218395, "ECCENTRICITY": 0.00491654, "INCLINATION": 98.7603, "RA_OF_ASC_NODE": 23.5305, "ARG_OF_PERICENTER": 334.7072, "MEAN_ANOMALY": 178.6573, "EPHEMERIS_TYPE": 0, "CLASSIFICATION_TYPE": "U", "NORAD_CAT_ID": 30956, "ELEMENT_SET_NO": 999, "REV_AT_EPOCH": 96347, "BSTAR": 0.00084630063, "MEAN_MOTION_DOT": 1.59e-05, "MEAN_MOTION_DDOT": 0}, "tle": {"line1": "1 30956U 99025BAW 25349.56994041  .00001590  00000+0  84630-3 0  9997", "line2": "2 30956  98.7603  23.5305 0049165 334.7072 178.6573 14.14218395963471"}}, "geometry": {"type": "Point", "coordinates": [57.09204524851335, -73.98568519054592]}}]}